start=new Date('2022-03-12T00:00:00.000Z').valueOf();
sats=[{"ELEMENT_SET_NO":"999","CLASSIFICATION_TYPE":"U","ECCENTRICITY":"0.00013180","OBJECT_TYPE":"PAYLOAD","RCS_SIZE":"LARGE","MEAN_ELEMENT_THEORY":"SGP4","MEAN_MOTION_DDOT":"0.0000000000000","REV_AT_EPOCH":"5280","DECAY_DATE":null,"EPOCH":"2022-03-11T19:23:18.653856","EPHEMERIS_TYPE":"0","TIME_SYSTEM":"UTC","ARG_OF_PERICENTER":"77.4364","COUNTRY_CODE":"US","NORAD_CAT_ID":"48144","TLE_LINE1":"1 48144U 21027BE  22070.80785479  .00006065  00000-0  42548-3 0  9995","MEAN_MOTION":"15.06421110","SEMIMAJOR_AXIS":"6925.284","PERIAPSIS":"546.236","MEAN_MOTION_DOT":"0.00006065","LAUNCH_DATE":"2021-04-07","SITE":"AFETR","INCLINATION":"53.0530","RA_OF_ASC_NODE":"220.7957","REF_FRAME":"TEME","OBJECT_ID":"2021-027BE","FILE":"3355378","OBJECT_NAME":"STARLINK-2487","MEAN_ANOMALY":"282.6772","GP_ID":"198519240","CENTER_NAME":"EARTH","BSTAR":"0.00042548000000","TLE_LINE2":"2 48144  53.0530 220.7957 0001318  77.4364 282.6772 15.06421110 52805","PERIOD":"95.591","APOAPSIS":"548.062"},{"MEAN_MOTION_DOT":"0.00007171","LAUNCH_DATE":"2021-04-07","PERIAPSIS":"546.082","SEMIMAJOR_AXIS":"6925.291","TLE_LINE1":"1 48145U 21027BF  22070.87789060  .00007171  00000-0  49956-3 0  9992","MEAN_MOTION":"15.06418890","GP_ID":"198519990","CENTER_NAME":"EARTH","PERIOD":"95.591","TLE_LINE2":"2 48145  53.0538 220.4766 0001551  60.0239 300.0904 15.06418890 52822","BSTAR":"0.00049956000000","APOAPSIS":"548.230","OBJECT_ID":"2021-027BF","FILE":"3355378","OBJECT_NAME":"STARLINK-2488","MEAN_ANOMALY":"300.0904","INCLINATION":"53.0538","RA_OF_ASC_NODE":"220.4766","REF_FRAME":"TEME","SITE":"AFETR","MEAN_MOTION_DDOT":"0.0000000000000","REV_AT_EPOCH":"5282","MEAN_ELEMENT_THEORY":"SGP4","RCS_SIZE":"LARGE","ECCENTRICITY":"0.00015510","OBJECT_TYPE":"PAYLOAD","ELEMENT_SET_NO":"999","CLASSIFICATION_TYPE":"U","ARG_OF_PERICENTER":"60.0239","TIME_SYSTEM":"UTC","COUNTRY_CODE":"US","NORAD_CAT_ID":"48145","EPOCH":"2022-03-11T21:04:09.747840","EPHEMERIS_TYPE":"0","DECAY_DATE":null},{"NORAD_CAT_ID":"48146","COUNTRY_CODE":"US","TIME_SYSTEM":"UTC","ARG_OF_PERICENTER":"85.3074","EPHEMERIS_TYPE":"0","EPOCH":"2022-03-11T17:50:26.477664","DECAY_DATE":null,"REV_AT_EPOCH":"5252","MEAN_MOTION_DDOT":"0.0000000000000","RCS_SIZE":"LARGE","MEAN_ELEMENT_THEORY":"SGP4","OBJECT_TYPE":"PAYLOAD","ECCENTRICITY":"0.00013100","CLASSIFICATION_TYPE":"U","ELEMENT_SET_NO":"999","APOAPSIS":"548.080","TLE_LINE2":"2 48146  53.0540 241.0893 0001310  85.3074 274.8064 15.06413268 52522","BSTAR":"0.00060289000000","PERIOD":"95.591","CENTER_NAME":"EARTH","GP_ID":"198518239","MEAN_ANOMALY":"274.8064","OBJECT_NAME":"STARLINK-2489","FILE":"3355378","OBJECT_ID":"2021-027BG","REF_FRAME":"TEME","RA_OF_ASC_NODE":"241.0893","INCLINATION":"53.0540","SITE":"AFETR","LAUNCH_DATE":"2021-04-07","MEAN_MOTION_DOT":"0.00008713","SEMIMAJOR_AXIS":"6925.308","PERIAPSIS":"546.266","MEAN_MOTION":"15.06413268","TLE_LINE1":"1 48146U 21027BG  22070.74336201  .00008713  00000-0  60289-3 0  9999"},{"EPOCH":"2022-03-11T20:58:11.595648","EPHEMERIS_TYPE":"0","DECAY_DATE":null,"COUNTRY_CODE":"US","ARG_OF_PERICENTER":"73.4158","TIME_SYSTEM":"UTC","NORAD_CAT_ID":"48147","ECCENTRICITY":"0.00015290","OBJECT_TYPE":"PAYLOAD","ELEMENT_SET_NO":"999","CLASSIFICATION_TYPE":"U","MEAN_MOTION_DDOT":"0.0000000000000","REV_AT_EPOCH":"5247","MEAN_ELEMENT_THEORY":"SGP4","RCS_SIZE":"LARGE","REF_FRAME":"TEME","RA_OF_ASC_NODE":"245.4967","INCLINATION":"53.0557","SITE":"AFETR","TLE_LINE2":"2 48147  53.0557 245.4967 0001529  73.4158 286.6999 15.06403683 52476","BSTAR":"0.00018489000000","PERIOD":"95.592","CENTER_NAME":"EARTH","GP_ID":"198518489","APOAPSIS":"548.261","OBJECT_ID":"2021-027BH","MEAN_ANOMALY":"286.6999","OBJECT_NAME":"STARLINK-2490","FILE":"3355378","MEAN_MOTION":"15.06403683","TLE_LINE1":"1 48147U 21027BH  22070.87374532  .00002474  00000-0  18489-3 0  9996","LAUNCH_DATE":"2021-04-07","MEAN_MOTION_DOT":"0.00002474","PERIAPSIS":"546.143","SEMIMAJOR_AXIS":"6925.337"},{"MEAN_MOTION":"15.06395076","TLE_LINE1":"1 48148U 21027BJ  22070.84288033  .00001633  00000-0  12852-3 0  9998","PERIAPSIS":"546.330","SEMIMAJOR_AXIS":"6925.364","MEAN_MOTION_DOT":"0.00001633","LAUNCH_DATE":"2021-04-07","SITE":"AFETR","INCLINATION":"53.0528","REF_FRAME":"TEME","RA_OF_ASC_NODE":"240.6454","OBJECT_ID":"2021-027BJ","FILE":"3355378","OBJECT_NAME":"STARLINK-2491","MEAN_ANOMALY":"283.8297","CENTER_NAME":"EARTH","GP_ID":"198519740","TLE_LINE2":"2 48148  53.0528 240.6454 0001297  76.2836 283.8297 15.06395076 52521","BSTAR":"0.00012852000000","PERIOD":"95.592","APOAPSIS":"548.127","ELEMENT_SET_NO":"999","CLASSIFICATION_TYPE":"U","ECCENTRICITY":"0.00012970","OBJECT_TYPE":"PAYLOAD","MEAN_ELEMENT_THEORY":"SGP4","RCS_SIZE":"LARGE","MEAN_MOTION_DDOT":"0.0000000000000","REV_AT_EPOCH":"5252","DECAY_DATE":null,"EPOCH":"2022-03-11T20:13:44.860512","EPHEMERIS_TYPE":"0","ARG_OF_PERICENTER":"76.2836","TIME_SYSTEM":"UTC","COUNTRY_CODE":"US","NORAD_CAT_ID":"48148"},{"COUNTRY_CODE":"US","ARG_OF_PERICENTER":"82.6063","TIME_SYSTEM":"UTC","NORAD_CAT_ID":"48149","EPOCH":"2022-03-11T17:21:14.753088","EPHEMERIS_TYPE":"0","DECAY_DATE":null,"MEAN_MOTION_DDOT":"0.0000000000000","REV_AT_EPOCH":"5279","RCS_SIZE":"MEDIUM","MEAN_ELEMENT_THEORY":"SGP4","ECCENTRICITY":"0.00014770","OBJECT_TYPE":"PAYLOAD","ELEMENT_SET_NO":"999","CLASSIFICATION_TYPE":"U","TLE_LINE2":"2 48149  53.0534 221.1662 0001477  82.6063 277.5094 15.06403449 52795","PERIOD":"95.592","BSTAR":"0.00018989000000","GP_ID":"198519491","CENTER_NAME":"EARTH","APOAPSIS":"548.226","OBJECT_ID":"2021-027BK","MEAN_ANOMALY":"277.5094","OBJECT_NAME":"STARLINK-2492","FILE":"3355378","REF_FRAME":"TEME","RA_OF_ASC_NODE":"221.1662","INCLINATION":"53.0534","SITE":"AFETR","LAUNCH_DATE":"2021-04-07","MEAN_MOTION_DOT":"0.00002548","PERIAPSIS":"546.180","SEMIMAJOR_AXIS":"6925.338","MEAN_MOTION":"15.06403449","TLE_LINE1":"1 48149U 21027BK  22070.72308742  .00002548  00000-0  18989-3 0  9999"},{"SEMIMAJOR_AXIS":"6925.340","PERIAPSIS":"546.216","MEAN_MOTION_DOT":"0.00000630","LAUNCH_DATE":"2021-04-07","MEAN_MOTION":"15.06402689","TLE_LINE1":"1 48150U 21027BL  22070.72677280  .00000630  00000-0  61204-4 0  9996","FILE":"3355378","OBJECT_NAME":"STARLINK-2493","MEAN_ANOMALY":"267.0107","OBJECT_ID":"2021-027BL","APOAPSIS":"548.194","CENTER_NAME":"EARTH","GP_ID":"198518739","BSTAR":"0.00006120400000","TLE_LINE2":"2 48150  53.0551 221.1668 0001428  93.1046 267.0107 15.06402689 52802","PERIOD":"95.592","SITE":"AFETR","INCLINATION":"53.0551","REF_FRAME":"TEME","RA_OF_ASC_NODE":"221.1668","MEAN_ELEMENT_THEORY":"SGP4","RCS_SIZE":"LARGE","REV_AT_EPOCH":"5280","MEAN_MOTION_DDOT":"0.0000000000000","CLASSIFICATION_TYPE":"U","ELEMENT_SET_NO":"999","OBJECT_TYPE":"PAYLOAD","ECCENTRICITY":"0.00014280","NORAD_CAT_ID":"48150","ARG_OF_PERICENTER":"93.1046","TIME_SYSTEM":"UTC","COUNTRY_CODE":"US","DECAY_DATE":null,"EPHEMERIS_TYPE":"0","EPOCH":"2022-03-11T17:26:33.169920"},{"OBJECT_TYPE":"PAYLOAD","ECCENTRICITY":"0.00012420","CLASSIFICATION_TYPE":"U","ELEMENT_SET_NO":"999","REV_AT_EPOCH":"5281","MEAN_MOTION_DDOT":"0.0000000000000","MEAN_ELEMENT_THEORY":"SGP4","RCS_SIZE":"LARGE","EPHEMERIS_TYPE":"0","EPOCH":"2022-03-11T19:07:23.585664","DECAY_DATE":null,"NORAD_CAT_ID":"48151","COUNTRY_CODE":"US","TIME_SYSTEM":"UTC","ARG_OF_PERICENTER":"75.9102","MEAN_MOTION":"15.06406635","TLE_LINE1":"1 48151U 21027BM  22070.79680076  .00001301  00000-0  10622-3 0  9994","LAUNCH_DATE":"2021-04-07","MEAN_MOTION_DOT":"0.00001301","SEMIMAJOR_AXIS":"6925.328","PERIAPSIS":"546.333","RA_OF_ASC_NODE":"220.8482","REF_FRAME":"TEME","INCLINATION":"53.0540","SITE":"AFETR","APOAPSIS":"548.053","PERIOD":"95.592","TLE_LINE2":"2 48151  53.0540 220.8482 0001242  75.9102 284.2025 15.06406635 52812","BSTAR":"0.00010622000000","CENTER_NAME":"EARTH","GP_ID":"198518989","MEAN_ANOMALY":"284.2025","FILE":"3355378","OBJECT_NAME":"STARLINK-2503","OBJECT_ID":"2021-027BM"},{"SITE":"AFETR","INCLINATION":"53.0546","REF_FRAME":"TEME","RA_OF_ASC_NODE":"115.3060","OBJECT_ID":"2021-036A","FILE":"3354983","OBJECT_NAME":"STARLINK-2567","MEAN_ANOMALY":"7.0091","CENTER_NAME":"EARTH","GP_ID":"198488374","BSTAR":"0.00059883000000","TLE_LINE2":"2 48276  53.0546 115.3060 0001583  61.0758   7.0091 15.06404401 49513","PERIOD":"95.592","APOAPSIS":"548.296","MEAN_MOTION":"15.06404401","TLE_LINE1":"1 48276U 21036A   22070.91667824  .00008650  00000-0  59883-3 0  9998","PERIAPSIS":"546.104","SEMIMAJOR_AXIS":"6925.335","MEAN_MOTION_DOT":"0.00008650","LAUNCH_DATE":"2021-04-29","DECAY_DATE":null,"EPOCH":"2022-03-11T22:00:00.999936","EPHEMERIS_TYPE":"0","TIME_SYSTEM":"UTC","ARG_OF_PERICENTER":"61.0758","COUNTRY_CODE":"US","NORAD_CAT_ID":"48276","ELEMENT_SET_NO":"999","CLASSIFICATION_TYPE":"U","ECCENTRICITY":"0.00015830","OBJECT_TYPE":"PAYLOAD","MEAN_ELEMENT_THEORY":"SGP4","RCS_SIZE":"LARGE","MEAN_MOTION_DDOT":"0.0000000000000","REV_AT_EPOCH":"4951"},{"DECAY_DATE":null,"EPOCH":"2022-03-11T22:00:00.999936","EPHEMERIS_TYPE":"0","ARG_OF_PERICENTER":"63.0743","TIME_SYSTEM":"UTC","COUNTRY_CODE":"US","NORAD_CAT_ID":"48277","ELEMENT_SET_NO":"999","CLASSIFICATION_TYPE":"U","ECCENTRICITY":"0.00016120","OBJECT_TYPE":"PAYLOAD","RCS_SIZE":"LARGE","MEAN_ELEMENT_THEORY":"SGP4","MEAN_MOTION_DDOT":"0.0000000000000","REV_AT_EPOCH":"358","SITE":"AFETR","INCLINATION":"53.0570","REF_FRAME":"TEME","RA_OF_ASC_NODE":"80.2932","OBJECT_ID":"2021-036B","FILE":"3355378","OBJECT_NAME":"STARLINK-2569","MEAN_ANOMALY":"357.4385","GP_ID":"198519255","CENTER_NAME":"EARTH","BSTAR":"0.00107460000000","TLE_LINE2":"2 48277  53.0570  80.2932 0001612  63.0743 357.4385 15.06403350  3585","PERIOD":"95.592","APOAPSIS":"548.320","MEAN_MOTION":"15.06403350","TLE_LINE1":"1 48277U 21036B   22070.91667824  .00015762  00000-0  10746-2 0  9995","PERIAPSIS":"546.087","SEMIMAJOR_AXIS":"6925.338","MEAN_MOTION_DOT":"0.00015762","LAUNCH_DATE":"2021-04-29"}];
